[
    {
        "Altitude(m)": 707248.1813386107,
        "Argument of Periapsis(deg)": 0.007973084830638947,
        "Eccentricity": 0.0,
        "Inclination(deg)": 45.0,
        "Latitude(deg)": -17.295978896323142,
        "Longitude(deg)": 11.425435234753857,
        "Mean Anomaly(deg)": -24.65404834676343,
        "RAAN(deg)": 129.99247364097926,
        "Satellite Name": "Constellation 1 592",
        "Satellite Number": 592,
        "Semi-Major Axis(m)": 7083131.272910544,
        "Time(s)": 133
    },
    {
        "Altitude(m)": 707235.7064325623,
        "Argument of Periapsis(deg)": 0.008033032836884352,
        "Eccentricity": 0.0,
        "Inclination(deg)": 45.0,
        "Latitude(deg)": -17.254953469318295,
        "Longitude(deg)": 11.468260237483316,
        "Mean Anomaly(deg)": -24.593347206513585,
        "RAAN(deg)": 129.9924170518137,
        "Satellite Name": "Constellation 1 592",
        "Satellite Number": 592,
        "Semi-Major Axis(m)": 7083131.272910544,
        "Time(s)": 134
    },
    {
        "Altitude(m)": 707223.2424377266,
        "Argument of Periapsis(deg)": 0.008092980843129758,
        "Eccentricity": 0.0,
        "Inclination(deg)": 45.0,
        "Latitude(deg)": -17.213916830614085,
        "Longitude(deg)": 11.51106461531187,
        "Mean Anomaly(deg)": -24.532646066263606,
        "RAAN(deg)": 129.99236046264812,
        "Satellite Name": "Constellation 1 592",
        "Satellite Number": 592,
        "Semi-Major Axis(m)": 7083131.272910544,
        "Time(s)": 135
    },
    {
        "Altitude(m)": 707210.7893931412,
        "Argument of Periapsis(deg)": 0.008152928849375162,
        "Eccentricity": 0.0,
        "Inclination(deg)": 45.0,
        "Latitude(deg)": -17.1728690128593,
        "Longitude(deg)": 11.553848424061089,
        "Mean Anomaly(deg)": -24.47194492601376,
        "RAAN(deg)": 129.99230387348257,
        "Satellite Name": "Constellation 1 592",
        "Satellite Number": 592,
        "Semi-Major Axis(m)": 7083131.272910544,
        "Time(s)": 136
    },
    {
        "Altitude(m)": 707198.3473378022,
        "Argument of Periapsis(deg)": 0.008212876855620568,
        "Eccentricity": 0.0,
        "Inclination(deg)": 45.0,
        "Latitude(deg)": -17.131810048662466,
        "Longitude(deg)": 11.596611719522748,
        "Mean Anomaly(deg)": -24.411243785763805,
        "RAAN(deg)": 129.992247284317,
        "Satellite Name": "Constellation 1 592",
        "Satellite Number": 592,
        "Semi-Major Axis(m)": 7083131.272910544,
        "Time(s)": 137
    },
    {
        "Altitude(m)": 707185.9163106477,
        "Argument of Periapsis(deg)": 0.008272824861865974,
        "Eccentricity": 0.0,
        "Inclination(deg)": 45.0,
        "Latitude(deg)": -17.09073997059249,
        "Longitude(deg)": 11.63935455745803,
        "Mean Anomaly(deg)": -24.350542645513933,
        "RAAN(deg)": 129.9921906951514,
        "Satellite Name": "Constellation 1 592",
        "Satellite Number": 592,
        "Semi-Major Axis(m)": 7083131.272910544,
        "Time(s)": 138
    },
    {
        "Altitude(m)": 707173.49635055,
        "Argument of Periapsis(deg)": 0.00833277286811138,
        "Eccentricity": 0.0,
        "Inclination(deg)": 45.0,
        "Latitude(deg)": -17.049658811178443,
        "Longitude(deg)": 11.682076993598287,
        "Mean Anomaly(deg)": -24.289841505264086,
        "RAAN(deg)": 129.99213410598585,
        "Satellite Name": "Constellation 1 592",
        "Satellite Number": 592,
        "Semi-Major Axis(m)": 7083131.272910544,
        "Time(s)": 139
    },
    {
        "Altitude(m)": 707161.0874963312,
        "Argument of Periapsis(deg)": 0.008392720874356788,
        "Eccentricity": 0.0,
        "Inclination(deg)": 45.0,
        "Latitude(deg)": -17.008566602909717,
        "Longitude(deg)": 11.724779083644634,
        "Mean Anomaly(deg)": -24.229140365014107,
        "RAAN(deg)": 129.99207751682027,
        "Satellite Name": "Constellation 1 592",
        "Satellite Number": 592,
        "Semi-Major Axis(m)": 7083131.272910544,
        "Time(s)": 140
    },
    {
        "Altitude(m)": 707148.6897867543,
        "Argument of Periapsis(deg)": 0.008452668880602192,
        "Eccentricity": 0.0,
        "Inclination(deg)": 45.0,
        "Latitude(deg)": -16.967463378236776,
        "Longitude(deg)": 11.767460715170696,
        "Mean Anomaly(deg)": -24.16843922476425,
        "RAAN(deg)": 129.9920209276547,
        "Satellite Name": "Constellation 1 592",
        "Satellite Number": 592,
        "Semi-Major Axis(m)": 7083131.272910544,
        "Time(s)": 141
    },
    {
        "Altitude(m)": 707136.3032605208,
        "Argument of Periapsis(deg)": 0.008512616886847598,
        "Eccentricity": 0.0,
        "Inclination(deg)": 45.0,
        "Latitude(deg)": -16.926349169569434,
        "Longitude(deg)": 11.810122280011317,
        "Mean Anomaly(deg)": -24.1077380845143,
        "RAAN(deg)": 129.99196433848914,
        "Satellite Name": "Constellation 1 592",
        "Satellite Number": 592,
        "Semi-Major Axis(m)": 7083131.272910544,
        "Time(s)": 142
    },
    {
        "Altitude(m)": 707123.9279562761,
        "Argument of Periapsis(deg)": 0.008572564893093004,
        "Eccentricity": 0.0,
        "Inclination(deg)": 45.0,
        "Latitude(deg)": -16.885224009279508,
        "Longitude(deg)": 11.852763665679593,
        "Mean Anomaly(deg)": -24.047036944264526,
        "RAAN(deg)": 129.99190774932356,
        "Satellite Name": "Constellation 1 592",
        "Satellite Number": 592,
        "Semi-Major Axis(m)": 7083131.272910544,
        "Time(s)": 143
    },
    {
        "Altitude(m)": 707111.563912611,
        "Argument of Periapsis(deg)": 0.008632512899338408,
        "Eccentricity": 0.0,
        "Inclination(deg)": 45.0,
        "Latitude(deg)": -16.844087929698922,
        "Longitude(deg)": 11.895384927756107,
        "Mean Anomaly(deg)": -23.98633580401458,
        "RAAN(deg)": 129.991851160158,
        "Satellite Name": "Constellation 1 592",
        "Satellite Number": 592,
        "Semi-Major Axis(m)": 7083131.272910544,
        "Time(s)": 144
    },
    {
        "Altitude(m)": 707099.2111680519,
        "Argument of Periapsis(deg)": 0.008692460905583814,
        "Eccentricity": 0.0,
        "Inclination(deg)": 45.0,
        "Latitude(deg)": -16.802940963120907,
        "Longitude(deg)": 11.93798612179064,
        "Mean Anomaly(deg)": -23.925634663764626,
        "RAAN(deg)": 129.99179457099245,
        "Satellite Name": "Constellation 1 592",
        "Satellite Number": 592,
        "Semi-Major Axis(m)": 7083131.272910544,
        "Time(s)": 145
    },
    {
        "Altitude(m)": 707086.8697610733,
        "Argument of Periapsis(deg)": 0.00875240891182922,
        "Eccentricity": 0.0,
        "Inclination(deg)": 45.0,
        "Latitude(deg)": -16.761783141799697,
        "Longitude(deg)": 11.980567303302857,
        "Mean Anomaly(deg)": -23.864933523514754,
        "RAAN(deg)": 129.99173798182684,
        "Satellite Name": "Constellation 1 592",
        "Satellite Number": 592,
        "Semi-Major Axis(m)": 7083131.272910544,
        "Time(s)": 146
    },
    {
        "Altitude(m)": 707074.5397300815,
        "Argument of Periapsis(deg)": 0.008812356918074627,
        "Eccentricity": 0.0,
        "Inclination(deg)": 45.0,
        "Latitude(deg)": -16.72061449795059,
        "Longitude(deg)": 12.02312852778232,
        "Mean Anomaly(deg)": -23.804232383264907,
        "RAAN(deg)": 129.9916813926613,
        "Satellite Name": "Constellation 1 592",
        "Satellite Number": 592,
        "Semi-Major Axis(m)": 7083131.272910544,
        "Time(s)": 147
    },
    {
        "Altitude(m)": 707062.221113439,
        "Argument of Periapsis(deg)": 0.008872304924320031,
        "Eccentricity": 0.0,
        "Inclination(deg)": 45.0,
        "Latitude(deg)": -16.67943506375044,
        "Longitude(deg)": 12.0656696825914,
        "Mean Anomaly(deg)": -23.743531243014928,
        "RAAN(deg)": 129.9916248034957,
        "Satellite Name": "Constellation 1 592",
        "Satellite Number": 592,
        "Semi-Major Axis(m)": 7083131.272910544,
        "Time(s)": 148
    },
    {
        "Altitude(m)": 707049.9139494326,
        "Argument of Periapsis(deg)": 0.008932252930565437,
        "Eccentricity": 0.0,
        "Inclination(deg)": 45.0,
        "Latitude(deg)": -16.638244871336774,
        "Longitude(deg)": 12.108191159353183,
        "Mean Anomaly(deg)": -23.68283010276498,
        "RAAN(deg)": 129.99156821433016,
        "Satellite Name": "Constellation 1 592",
        "Satellite Number": 592,
        "Semi-Major Axis(m)": 7083131.272910544,
        "Time(s)": 149
    },
    {
        "Altitude(m)": 707037.6182762992,
        "Argument of Periapsis(deg)": 0.008992200936810843,
        "Eccentricity": 0.0,
        "Inclination(deg)": 45.0,
        "Latitude(deg)": -16.597043952809553,
        "Longitude(deg)": 12.150692845369313,
        "Mean Anomaly(deg)": -23.62212896251522,
        "RAAN(deg)": 129.9915116251646,
        "Satellite Name": "Constellation 1 592",
        "Satellite Number": 592,
        "Semi-Major Axis(m)": 7083131.272910544,
        "Time(s)": 150
    },
    {
        "Altitude(m)": 707025.3341322152,
        "Argument of Periapsis(deg)": 0.009052148943056249,
        "Eccentricity": 0.0,
        "Inclination(deg)": 45.0,
        "Latitude(deg)": -16.555832340229678,
        "Longitude(deg)": 12.193174796008693,
        "Mean Anomaly(deg)": -23.561427822265244,
        "RAAN(deg)": 129.991455035999,
        "Satellite Name": "Constellation 1 592",
        "Satellite Number": 592,
        "Semi-Major Axis(m)": 7083131.272910544,
        "Time(s)": 151
    }
]